{
  "type": "FeatureCollection",
  "features": [
    {
      "type": "Feature",
      "properties": {
        "color": "#008080"
      },
      "geometry": {
        "type": "Polygon",
        "coordinates": [
          [
            [
              11.91914878,
              50.32289583
            ],
            [
              11.91866598,
              50.32291638
            ],
            [
              11.91821001,
              50.32296775
            ],
            [
              11.91707811,
              50.32260813
            ],
            [
              11.91663823,
              50.3230431
            ],
            [
              11.91498063,
              50.32248141
            ],
            [
              11.91518447,
              50.32222796
            ],
            [
              11.91550097,
              50.32107029
            ],
            [
              11.91414914,
              50.32079628
            ],
            [
              11.91425106,
              50.32053254
            ],
            [
              11.91440127,
              50.32036471
            ],
            [
              11.91549025,
              50.32054282
            ],
            [
              11.91552243,
              50.32047432
            ],
            [
              11.9165524,
              50.32056337
            ],
            [
              11.91701374,
              50.32055994
            ],
            [
              11.91690109,
              50.32028593
            ],
            [
              11.91769502,
              50.32018318
            ],
            [
              11.91843531,
              50.32117647
            ],
            [
              11.91726587,
              50.32120387
            ],
            [
              11.91736779,
              50.32160117
            ],
            [
              11.91733024,
              50.32198478
            ],
            [
              11.91807589,
              50.32207726
            ],
            [
              11.91845677,
              50.32209781
            ],
            [
              11.91890202,
              50.32208753
            ],
            [
              11.91914878,
              50.32289583
            ]
          ]
        ]
      }
    },
    {
      "type": "Feature",
      "properties": {
        "color": "#ff0000"
      },
      "geometry": {
        "type": "Point",
        "coordinates": [
          11.90919663,
          50.32323353
        ]
      }
    },
    {
      "type": "Feature",
      "properties": {
        "color": "#008080"
      },
      "geometry": {
        "type": "Polygon",
        "coordinates": [
          [
            [
              11.9212488,
              50.32310289
            ],
            [
              11.92182815,
              50.32275354
            ],
            [
              11.92168331,
              50.32246584
            ],
            [
              11.92149556,
              50.32216787
            ],
            [
              11.92139364,
              50.32163699
            ],
            [
              11.92120052,
              50.32111295
            ],
            [
              11.92065335,
              50.32064371
            ],
            [
              11.92031539,
              50.32031066
            ],
            [
              11.92009545,
              50.3199613
            ],
            [
              11.92003107,
              50.31981744
            ],
            [
              11.91997743,
              50.3188755
            ],
            [
              11.91976285,
              50.31861176
            ],
            [
              11.91918886,
              50.31807741
            ],
            [
              11.91903866,
              50.31783764
            ],
            [
              11.91897428,
              50.3176561
            ],
            [
              11.91903866,
              50.31714229
            ],
            [
              11.91936052,
              50.31615577
            ],
            [
              11.91984868,
              50.31547067
            ],
            [
              11.92024565,
              50.31504591
            ],
            [
              11.92039585,
              50.3146554
            ],
            [
              11.92066944,
              50.3143745
            ],
            [
              11.92046023,
              50.31430256
            ],
            [
              11.91974139,
              50.31426488
            ],
            [
              11.9192586,
              50.31422378
            ],
            [
              11.91872216,
              50.31414156
            ],
            [
              11.91847539,
              50.31440533
            ],
            [
              11.91823399,
              50.31447384
            ],
            [
              11.91821254,
              50.31461772
            ],
            [
              11.91827154,
              50.31472048
            ],
            [
              11.91848612,
              50.31471021
            ],
            [
              11.91817498,
              50.31498425
            ],
            [
              11.91794431,
              50.31512127
            ],
            [
              11.91762781,
              50.31543642
            ],
            [
              11.91722012,
              50.31608041
            ],
            [
              11.91697872,
              50.31647776
            ],
            [
              11.91689825,
              50.31706693
            ],
            [
              11.91756881,
              50.31810139
            ],
            [
              11.91779948,
              50.31869739
            ],
            [
              11.91755808,
              50.31898511
            ],
            [
              11.91785848,
              50.31917007
            ],
            [
              11.91846466,
              50.31942354
            ],
            [
              11.91870606,
              50.31990649
            ],
            [
              11.91871679,
              50.32031751
            ],
            [
              11.91955364,
              50.32106419
            ],
            [
              11.91992379,
              50.3214615
            ],
            [
              11.9202081,
              50.32167386
            ],
            [
              11.9203583,
              50.32182456
            ],
            [
              11.92059434,
              50.32204034
            ],
            [
              11.92071772,
              50.32210199
            ],
            [
              11.92092157,
              50.32233831
            ],
            [
              11.92107713,
              50.32260546
            ],
            [
              11.92117906,
              50.32297878
            ],
            [
              11.9212488,
              50.32310289
            ]
          ]
        ]
      }
    },
    {
      "type": "Feature",
      "properties": {
        "color": "#000080"
      },
      "geometry": {
        "type": "Polygon",
        "coordinates": [
          [
            [
              11.9206963,
              50.31436035
            ],
            [
              11.92046563,
              50.31427814
            ],
            [
              11.9192801,
              50.31421305
            ],
            [
              11.91872756,
              50.31412399
            ],
            [
              11.91812138,
              50.31416167
            ],
            [
              11.91730063,
              50.31439803
            ],
            [
              11.91705923,
              50.31442201
            ],
            [
              11.91667299,
              50.31437406
            ],
            [
              11.91584151,
              50.31408973
            ],
            [
              11.91564839,
              50.31501121
            ],
            [
              11.91527824,
              50.31500093
            ],
            [
              11.91540162,
              50.31416167
            ],
            [
              11.9126014,
              50.31456931
            ],
            [
              11.91213469,
              50.31351423
            ],
            [
              11.91172991,
              50.3125385
            ],
            [
              11.9114238,
              50.31163163
            ],
            [
              11.91156596,
              50.31159395
            ],
            [
              11.91169471,
              50.31168131
            ],
            [
              11.91206485,
              50.31157168
            ],
            [
              11.91213727,
              50.31168473
            ],
            [
              11.91298509,
              50.31140053
            ],
            [
              11.91309214,
              50.31153914
            ],
            [
              11.91387534,
              50.31124795
            ],
            [
              11.91379488,
              50.31103041
            ],
            [
              11.91538543,
              50.31058676
            ],
            [
              11.92044444,
              50.30886258
            ],
            [
              11.91796571,
              50.30628027
            ],
            [
              11.91776723,
              50.30620146
            ],
            [
              11.91712923,
              50.30607375
            ],
            [
              11.91773004,
              50.30540907
            ],
            [
              11.91783733,
              50.30531999
            ],
            [
              11.91736526,
              50.30486772
            ],
            [
              11.91749401,
              50.30475123
            ],
            [
              11.91774845,
              50.30498687
            ],
            [
              11.91802204,
              50.30504512
            ],
            [
              11.91823125,
              50.30503484
            ],
            [
              11.91862054,
              50.3049431
            ],
            [
              11.91914856,
              50.30544599
            ],
            [
              11.9188891,
              50.30555144
            ],
            [
              11.91930547,
              50.3059899
            ],
            [
              11.92026205,
              50.30569002
            ],
            [
              11.92084506,
              50.30637363
            ],
            [
              11.91957906,
              50.30683958
            ],
            [
              11.92114762,
              50.30867463
            ],
            [
              11.92128441,
              50.30863352
            ],
            [
              11.92133001,
              50.30871403
            ],
            [
              11.92211321,
              50.30843824
            ],
            [
              11.92206225,
              50.30837143
            ],
            [
              11.9244065,
              50.30758515
            ],
            [
              11.9270458,
              50.30695646
            ],
            [
              11.92730329,
              50.30695304
            ],
            [
              11.92746432,
              50.30709637
            ],
            [
              11.92786119,
              50.30696332
            ],
            [
              11.92845323,
              50.30761212
            ],
            [
              11.92875168,
              50.30751492
            ],
            [
              11.92886305,
              50.30765926
            ],
            [
              11.93014107,
              50.30721685
            ],
            [
              11.93039543,
              50.30728746
            ],
            [
              11.93089969,
              50.30691401
            ],
            [
              11.93184383,
              50.3063487
            ],
            [
              11.93225689,
              50.30596497
            ],
            [
              11.93258948,
              50.30560179
            ],
            [
              11.93278796,
              50.30508443
            ],
            [
              11.93279869,
              50.30486172
            ],
            [
              11.93230517,
              50.30443001
            ],
            [
              11.93226762,
              50.30436834
            ],
            [
              11.93232662,
              50.30434093
            ],
            [
              11.93276651,
              50.30475894
            ],
            [
              11.93303473,
              50.30468698
            ],
            [
              11.93430609,
              50.30467671
            ],
            [
              11.93250901,
              50.30643778
            ],
            [
              11.9326914,
              50.30662965
            ],
            [
              11.93299181,
              50.3064926
            ],
            [
              11.9339735,
              50.30712986
            ],
            [
              11.93345852,
              50.30727033
            ],
            [
              11.93262167,
              50.30815425
            ],
            [
              11.93216033,
              50.30861334
            ],
            [
              11.93148441,
              50.30912724
            ],
            [
              11.93096943,
              50.30959316
            ],
            [
              11.93035788,
              50.31023038
            ],
            [
              11.93081922,
              50.31052501
            ],
            [
              11.93054027,
              50.31071685
            ],
            [
              11.9299931,
              50.31047704
            ],
            [
              11.92886657,
              50.31103888
            ],
            [
              11.92661352,
              50.31184737
            ],
            [
              11.92477889,
              50.31249141
            ],
            [
              11.92484326,
              50.31283398
            ],
            [
              11.92469306,
              50.31284083
            ],
            [
              11.92455358,
              50.31258048
            ],
            [
              11.92321248,
              50.31300526
            ],
            [
              11.92315883,
              50.31284083
            ],
            [
              11.92153878,
              50.31310803
            ],
            [
              11.92080922,
              50.31338894
            ],
            [
              11.92108817,
              50.31362873
            ],
            [
              11.92100234,
              50.31401925
            ],
            [
              11.9206963,
              50.31436035
            ]
          ]
        ]
      }
    },
    {
      "type": "Feature",
      "properties": {
        "color": "#00ffff"
      },
      "geometry": {
        "type": "Polygon",
        "coordinates": [
          [
            [
              11.91936467,
              50.3238217
            ],
            [
              11.91923592,
              50.32297231
            ],
            [
              11.91902135,
              50.32207497
            ],
            [
              11.91899989,
              50.32202701
            ],
            [
              11.9183347,
              50.32204071
            ],
            [
              11.9173691,
              50.32195851
            ],
            [
              11.91743348,
              50.32166396
            ],
            [
              11.91733692,
              50.3212461
            ],
            [
              11.91866588,
              50.32119569
            ],
            [
              11.91886704,
              50.32147141
            ],
            [
              11.91954564,
              50.32128817
            ],
            [
              11.91965159,
              50.32122909
            ],
            [
              11.91973742,
              50.32129245
            ],
            [
              11.91967573,
              50.3213267
            ],
            [
              11.91998418,
              50.32155276
            ],
            [
              11.92006465,
              50.32168462
            ],
            [
              11.92018803,
              50.32173771
            ],
            [
              11.92028191,
              50.32178395
            ],
            [
              11.92033824,
              50.32189184
            ],
            [
              11.92045589,
              50.32194761
            ],
            [
              11.92056049,
              50.32204522
            ],
            [
              11.92069728,
              50.32211544
            ],
            [
              11.92085285,
              50.32229868
            ],
            [
              11.92104329,
              50.32260693
            ],
            [
              11.92110498,
              50.32283811
            ],
            [
              11.92114521,
              50.32298367
            ],
            [
              11.92121227,
              50.3231241
            ],
            [
              11.92071874,
              50.32343234
            ],
            [
              11.92051221,
              50.32357619
            ],
            [
              11.92007769,
              50.32375257
            ],
            [
              11.91960026,
              50.32382107
            ],
            [
              11.91936467,
              50.3238217
            ]
          ]
        ]
      }
    },
    {
      "type": "Feature",
      "properties": {
        "name": "SAN IV",
        "color": "#008080",
        "labelOnly": true
      },
      "geometry": {
        "type": "Point",
        "coordinates": [
          11.91885497,
          50.31865592
        ]
      }
    },
    {
      "type": "Feature",
      "properties": {
        "name": "SAN V",
        "color": "#000080",
        "labelOnly": true
      },
      "geometry": {
        "type": "Point",
        "coordinates": [
          11.92108454,
          50.31114656
        ]
      }
    },
    {
      "type": "Feature",
      "properties": {
        "name": "SAN VII",
        "color": "#008080",
        "labelOnly": true
      },
      "geometry": {
        "type": "Point",
        "coordinates": [
          11.91665506,
          50.32226173
        ]
      }
    },
    {
      "type": "Feature",
      "properties": {
        "name": "SAN VI",
        "color": "#00ffff",
        "labelOnly": true
      },
      "geometry": {
        "type": "Point",
        "coordinates": [
          11.91935873,
          50.32163153
        ]
      }
    }
  ]
}
